cgv,address,lat,lng,name
0,서울특별시 강남구 강남대로 438 (역삼동),37.5015279,127.0263683,강남
1,서울특별시 광진구 광나루로56길 85 (구의동),37.5349372,127.0957088,강변
2,서울시 광진구 아차산로 30길,37.5461477,127.105331,건대입구
3,서울특별시 구로구 구로중앙로 152 (구로동),37.5060302,126.8762528,구로
4,서울 종로구 대명길 (명륜동),37.5832293,126.9999887,대학로
5,서울시 중구 장충단로 13길,37.5680428,127.009194,동대문
6,서울특별시 강서구 공항대로45길 63 3층~9층,37.5575077,126.856133,등촌
7,서울특별시 중구 명동길 14 (명동),37.5633965,126.982848,명동
8,서울특별시 중구 퇴계로 123 (명동),37.5610466,126.9854229,명동역 씨네라이브러리
9,"서울특별시 강북구 도봉로 34, 9층(미아동)",37.6198903,127.0288685,미아
10,"서울특별시 도봉구 방학동 707-6, 4F~8F",37.66442,127.03333,방학
11,"서울특별시 은평구 불광로 20, 11층(대조동)",37.60970285,126.9289089,불광
12,서울시 중랑구 상봉로 131 (상봉동),37.5981883,127.0928622,상봉
13,"서울특별시 성북구 동소문로 106, 10-12층",37.5925735,127.0170886,성신여대입구
14,"서울특별시 송파구 충민로 66, 10층(문정동)",37.4775778,127.1249983,송파
15,서울시 강북구 도봉로 399,37.6198903,127.0288685,수유
16,"서울특별시 서대문구 신촌로 129 , 2층(창천동)",37.5567643,126.9446778,신촌아트레온
17,서울특별시 강남구 압구정로30길 45 (신사동),37.524714,127.0290956,압구정
18,"서울특별시 영등포구 국제금융로 10, 지하3층(여의도동)",37.52538915,126.9266335,여의도
19,서울시 마포구 양화로 186 (동교동),37.5488956,126.9128659,연남
20,"서울시 영등포구 영중로 15, 4층",37.5284323,126.9057359,영등포
21,"서울특별시 성동구 왕십리광장로 17, 5층(행당동)",37.5612222,127.0371358,왕십리
22,"서울특별시 용산구 한강대로23길 55, 6층(한강로동)",37.5301906,126.9651428,용산아이파크몰
23,"서울특별시 노원구 동일로204가길 12, 8층(중계동)",37.6400057,127.068672,중계
24,서울시 강동구 양재대로 1571 홈플러스 4층,37.5458605,127.142537,천호
25,서울특별시 강남구 도산대로 323 (신사동),37.5161557,127.0198305,청담씨네시티
26,서울특별시 종로구 돈화문로5가길 1 지하2층,37.5719359,126.991419,피카디리1958
27,"서울특별시 노원구 섬밭로 258, 지하1층(중계동)",37.6429107,127.0624329,하계
28,서울특별시 마포구 양화로 153 (동교동),37.5488956,126.9128659,홍대
29,서울특별시 강남구 압구정로30길 45(신사동),37.524714,127.0290956,CINE de CHEF 압구정
30,"서울특별시 용산구 한강대로23길 55, 6층(한강로동) ",37.5301906,126.9651428,CINE de CHEF 용산아이파크몰
31,경기도 광주시 중앙로89,37.4078641,127.2589394,경기광주
32,경기도 고양시 덕양구 충장로 8 로터스플레이스 5F,37.61350045,126.8345017,고양행신
33,경기도 수원시 영통구 광교호수공원로 320(하동),37.2797321,127.0595857,광교
34,경기도 용인시 수지구 상현동 1116-4 W스퀘어,37.2980273,127.0692385,광교상현
35,경기도 광명시 일직로 43 GIDC,37.4213629,126.8870559,광명역
36,경기도 구리시 경춘로 243 2층,37.6009831,127.1226757,구리
37,"경기도 용인시 기흥구 기흥로 58-1, 기흥ICT밸리 SK",37.2799902,127.1193573,기흥
38,경기도 김포시 풍무로 128 김포풍무웰라움퍼펙트시티,37.6066215,126.7225699,김포
39,경기도 김포시 김포한강11로 288-31 에이스프라자,37.6446909,126.6960958,김포운양
40,경기도 김포시 걸포로,37.6409067,126.7034229,김포한강
41,경기도 용인시 기흥구 동백죽전대로 444 (중동),37.2779189,127.1518123,동백
42,"경기도 수원시 팔달구 권광로 181, 7층",37.282087,127.0378581,동수원
43,"경기도 화성시 동탄중앙로 220, 3층(반송동)",37.2118407,127.0731292,동탄
44,경기도 화성시 동탄대로 537 라스플로레스,37.2023202,127.0983609,동탄역
45,"경기도 화성시 동탄대로 181, 레이크꼬모",37.1587344,127.1034257,동탄호수공원
46,경기도 시흥시 서울대학로 278번길,37.362023,126.7201081,배곧
47,"경기도 안양시 동안구 동안로 119, 11층(호계동)",37.3892156,126.9512141,범계
48,"경기도 부천시 길주로 180, 5층(중동)",37.5044215,126.7621247,부천
49,"경기도 부천시 부일로 460(심곡동,",37.4870811,126.7746782,부천역
50,경기도 부천시 옥길로 124 문영퀸즈파크옥길,37.4676696,126.8226756,부천옥길
51,"경기도 수원시 장안구 경수대로 950, 4층(조원동)",37.3035438,127.0075006,북수원
52,경기도 군포시 번영로 505,37.356408,126.9301517,산본
53,경기도 분당구 서현로 180번길,37.362394,127.1494421,서현
54,경기도 성남시 중원구 성남대로1136,37.4307,127.137,성남모란
55,"경기도 부천시 송내대로 239, 7층(상동)",37.5048255,126.756529,소풍
56,"경기도 수원시 팔달구 덕영대로 924, 6층(매산로1가)",37.2658097,126.9999102,수원
57,경기도 하남시 위례대로200,37.4801231,127.1484115,스타필드시티위례
58,경기도 시흥시 복지로 90 (대야동),37.447031,126.791719,시흥
59,"경기도 안산시 단원구 광덕대로 194 (고잔동, NC백화점 A관",37.31348695,126.8309768,안산
60,경기도 안성시 아양2로 109 (석정동),37.0121883,127.2571546,안성
61,"경기도 성남시 분당구 성남대로925번길 16, 지하",37.413212,127.1279652,야탑
62,경기도 양주시 옥정로 200 씨네마엠디프라자,37.8310941,127.0922936,양주옥정
63,"경기도 부천시 경인로 505, 6층(괴안동)",37.4843555,126.8112467,역곡
64,경기도 성남시 분당구 탄천상로 151번길,37.3425982,127.1059239,오리(임시휴업)
65,경기도 오산시 원동로37번길,37.1447713,127.0705052,오산
66,경기도 오산시 원동로22,37.1426465,127.074434,오산중앙
67,"경기도 용인시 처인구 금령로 86, 5층",37.2350899,127.2056062,용인
68,"경기도 의정부시 평화로 525, 10층(의정부동)",37.7377035,127.0460501,의정부
69,"경기도 의정부시 시민로 80, 15층(의정부동)",37.7373266,127.0695857,의정부태흥
70,경기도 이천시 중리천로 58 (중리동),37.2803193,127.4432442,이천
71,경기도 고양시 일산동구 정발산로 24 (장항동),37.6551082,126.7726709,일산
72,경기 시흥시 정왕대로210,37.345879,126.7368994,정왕
73,"경기도 용인시 수지구 포은대로 536, 8층(죽전동)",37.3252542,127.1078969,죽전(리뉴얼중)
74,경기도 파주시 문산읍 당동리,37.87182,126.7864613,파주문산
75,"경기도 파주시 경의로 1074, 6층",37.7132971,126.7599231,파주야당
76,경기도 성남시 판교역로 146번길,37.388805,127.1084469,판교
77,"경기도 안양시 동안구 관평로170번길 33, 8층(관양동)",37.3931088,126.9625873,평촌
78,"경기도 평택시 평택로 51, 8층(평택동)",36.9912276,127.0856957,평택
79,"경기도 평택시 경기대로 945,평택고덕아이파크",37.0458193,127.0602684,평택고덕
80,경기도 평택시 평남로 862 (비전동)5~7층,36.9883118,127.0982952,평택소사
81,경기도 포천시 소흘읍 호국로 689,37.7984563,127.12794,포천
82,경기도 하남시 미사강변동로95,37.5640407,127.191871,하남미사
83,"경기도 화성시 봉담읍 동화길 51, 2층",37.2203716,126.9528607,화성봉담
84,"경기도 고양시 덕양구 화중로104번길 28, 3층(화정동)",37.6357279,126.8333615,화정
85,경기도 광주시 도척면 도웅리 540,37.33442,127.30004,DRIVE IN 곤지암
86,"인천광역시 계양구 장제로 738, 8층(작전동)",37.5695274,126.740364,계양
87,인천광역시 미추홀구 미추홀대로 736(주안동,37.4609496,126.6801964,남주안
88,인천광역시 부평구 마장로 489(청천동),37.5234665,126.704896,부평
89,인천광역시 연수구 하모니로 158 A동,37.3843919,126.6444802,송도타임스페이스
90,인천광역시 연수구 벚꽃로 106 8층,37.42319855,126.6704015,연수역
91,"인천광역시 남동구 예술로 198, 4층(구월동)",37.4622481,126.7023941,인천
92,"인천광역시 남동구 논현로26번길 34, 4층(논현동)",37.4025875,126.7084351,인천논현
93,"인천광역시 미추홀구 숙골로88번길 12, 지하1층",37.4740604,126.6641571,인천도화
94,"인천광역시 연수구 청능대로 210, 4층(동춘동)",37.4075361,126.683675,인천연수
95,인천광역시 미추홀구 매소홀로 255 (5층~8층),37.4467299,126.6378839,인천학익
96,"인천광역시 미추홀구 염창로 58, 6층(주안동)",37.4649337,126.6836069,주안역
97,인천광역시 서구 청라루비로 76 스퀘어세븐,37.5264214,126.6411467,청라
98,인천광역시 연수구 앵고개로 345-40,37.4036043,126.6789497,DRIVE IN 스퀘어원
99,"강원도 강릉시 경강로 2120, 6층~8층(옥천동)",37.7556897,128.8986517,강릉
100,"강원도 원주시 서원대로 171, 7층(단계동)",37.3445611,127.9310833,원주
101,강원도 인제군 북면 원통리,38.1547,128.27409,원통
102,강원도 인제군 인제읍 남북리,38.070295,128.1723584,인제
103,"강원도 춘천시 지석로 80, 3층~8층(퇴계동)",37.8504739,127.743839,춘천
104,충남 논산시 시민로 181 시네마타워,36.1763652,127.1027192,논산
105,충남 당진시 읍내동 1532번지,36.89419235,126.6402046,당진
106,"대전광역시 중구 계백로 1700, 6층(문화동)",36.320881,127.408904,대전
107,대전광역시 서구 도안동로 11번길,36.3311337,127.348133,대전가수원
108,"대전광역시 동구 은어송로 72, 4층(가오동)",36.3076999,127.4578774,대전가오
109,대전광역시 서구 문정로 85 세이탄방점,36.3473239,127.3886957,대전탄방
110,"대전광역시 동구 동서대로 1689, 3층(용전동)",36.3499969,127.4369189,대전터미널
111,충청남도 보령시 대흥로 51,36.3498602,126.5932888,보령
112,"충남 서산시 안견로 242 (동문동,",36.7831644,126.4423073,서산
113,세종특별자치시 도움1로 108 몰리브,36.5026232,127.2476548,세종
114,대전광역시 유성구 지족동 905-4번지,36.3758343,127.3208347,유성노은
115,충청북도 제천시 장평천로 27-13 더캐슬CGV제천,37.1247645,128.2194909,제천
116,"충청남도 천안시 동남구 명동길 47, 5층(대흥동)",36.8076594,127.1484136,천안
117,충청남도 천안시 서북구 번영로 201 센트에비뉴,36.804587,127.1062678,천안시청
118,천안시 동남구 만남로 43 신세계,36.8197639,127.1580052,천안터미널
119,"충청남도 천안시 서북구 공원로 196, 5층(불당동)",36.7985701,127.101104,천안펜타포트
120,충청북도 청주시 상당구 상당로81번길 63 (서문동),36.6355167,127.4879857,청주(서문)
121,충청북도 청주시 상당구 상당로81번길 33(북문로,36.6355167,127.4879857,청주성안길
122,충청북도 청주시 청원구 충청대로 114 (라마다프라자,36.7337035,127.5419054,청주율량
123,충청북도 청주시 흥덕구 대농로 47-1,36.6414594,127.4334174,청주지웰시티
124,충청북도 청주시 흥덕구 2순환로 1233 8층,36.6288885,127.4283968,청주터미널
125,충청북도 음성군 맹동면 대하1길 10,36.9080185,127.5401283,충북혁신
126,충주시 국원대로 107 한스,37.0009898,127.928736,충주교현
127,"충청남도 홍성군 홍성읍 조양로247번길 9, 5층(고암리)",36.6005922,126.6769456,홍성
128,"대구광역시 수성구 지범로 191, 8층(범물동)",35.8213168,128.639977,대구수성
129,대구광역시 수성구 유니버시아드로 140 (대흥동),35.8338979,128.6715531,대구스타디움
130,대구광역시 중구 중앙대로 412 (남일동),35.8659369,128.5934928,대구아카데미
131,대구광역시 북구 동화천로290,35.9329383,128.6043597,대구연경
132,대구광역시 달서구 조암로 29 (월성동),35.825086,128.5269945,대구월성
133,"대구광역시 중구 동성로 39, 7층(성내1동)",35.8680674,128.5945832,대구한일
134,"대구광역시 중구 달구벌대로 2077, 지하2층(계산동2가)",35.8650086,128.5955764,대구현대
135,"부산광역시 남구 수영로 305, 5층(대연동)",35.1373827,129.09928,대연
136,"부산광역시 동래구 중앙대로 1523, 6층(온천동)",35.2212535,129.0856217,동래
137,"부산광역시 강서구 명지국제8로 10번길 38,",35.0982889,128.917851,부산명지
138,"부산광역시 부산진구 동천로 4, 6층(전포동)",35.1574543,129.0620397,서면
139,부산광역시 부산진구 중앙대로 672 삼정타워,35.1529875,129.0596351,서면삼정타워
140,부산광역시 부산진구 부전동 521-1 KT&G상상마당,35.1569988,129.058582,서면상상마당
141,부산광역시 해운대구 센텀남대로,35.1685206,129.1311533,센텀시티
142,부산광역시 연제구 종합운동장로 7(거제동),35.1922208,129.0647115,아시아드
143,울산광역시 동구 등대로50,35.489945,129.4329884,울산동구
144,"울산광역시 남구 화합로 185, 5층(삼산동)",35.5348029,129.3408745,울산삼산
145,울산광역시 북구 매산1로 17 LEEPLEX,35.6349826,129.3557451,울산신천
146,울산광역시 북구 진장유통로 51-10(진장동),35.5776483,129.3565311,울산진장
147,부산시 기장군 정관읍 정관중앙로45,35.33791,129.17233,정관
148,부산시 사하구 낙동남로 1413 아트몰링 문화관,35.1064503,128.9665556,하단아트몰링
149,부산광역시 해운대구 해운대로 620 라뮤에뜨,35.1641091,129.1428045,해운대
150,부산광역시 북구 화명대로 16(화명동),35.2342187,129.0162219,화명
151,부산광역시 해운대구 센텀남대로,35.1685206,129.1311533,CINE de CHEF 센텀
152,"경상남도 거제시 장평로 12, 6층",34.8910437,128.6162529,거제
153,경북 경산시 대학로 28길,35.8758876,128.8076641,경산
154,경상남도 고성군 고성읍 송학로58,34.977565,128.320239,고성
155,"경상북도 구미시 구미중앙로 44, 4층(원평동)",36.1300306,128.3276387,구미
156,경상북도 김천시 혁신2로,36.1147137,128.1834844,김천율곡
157,"경상남도 김해시 내외중앙로 137, 4층(내동)",35.2428985,128.8694779,김해
158,"경남 김해시 율하2로 111, 시네마플레이스",35.1714719,128.8198015,김해율하
159,경상남도 김해시 삼문로 12,35.1929066,128.8041117,김해장유
160,"경상남도 창원시 마산회원구 3·15대로 736, 8층(합성동)",35.2169193,128.5755331,마산
161,경상북도 포항시 북구 서동로 93 (덕산동),36.0407438,129.3681725,북포항
162,경상북도 안동시 경동로 841 CGV안동,36.5502146,128.7746105,안동
163,경남 양산시 삼호 1길,35.298236,129.029471,양산삼호
164,경남 진주시 에나로127번길30,35.180708,128.1440675,진주혁신
165,"경상남도 창원시 의창구 창원대로397번길 6, 8층~11층(팔용동)",35.2342894,128.6430851,창원
166,경남 창원시 성산구 원이대로 320 더시티세븐,35.2402157,128.653581,창원더시티
167,"경남 창원시 성산구 중앙대로100번길 13, 6층",35.2227993,128.6808117,창원상남
168,"경상남도 통영시 원문로 27, 5층(북신동)",34.857856,128.4233206,통영
169,전라남도 광양시 금호로 26 몰오브광양 2~3F,34.935458,127.723166,광양
170,전라남도 광양시 광양읍 순광로 466 LF스퀘어 3층,34.96251425,127.5656325,광양 엘에프스퀘어
171,광주광역시 동구 중앙로 160번길,35.1538296,126.9198747,광주금남로
172,"광주광역시 서구 시청로 67(치평동,",35.1515855,126.8515573,광주상무
173,광주광역시 북구 문화소통로 170 (용봉동),35.1826721,126.9277012,광주용봉
174,"광주광역시 광산구 임방울대로826번길, 2층(쌍암동)",35.2156103,126.8487055,광주첨단
175,광주 광역시,35.1461042,126.9231228,광주충장로
176,"광주광역시 서구 무진대로 904, 2층~6층(광천동)",35.1608451,126.8815124,광주터미널
177,광주광역시 광산구 용아로400번길 30 테라스,35.1787476,126.805992,광주하남
178,"전라북도 군산시 백토로 166, 3층(나운동)",35.9666353,126.7058398,군산
179,전라남도 나주시 상야4길 16-16(빛가람동),35.0232767,126.7925121,나주
180,전라남도 목포시 교육로,34.8033482,126.4200385,목포
181,전라남도 목포시 원형동로,34.7992013,126.4336179,목포평화광장
182,전주시 완산구 홍산로 260 엠스퀘어,35.8325546,127.1067031,서전주
183,"전라남도 순천시 장명로 22, 2층~6층(장천동)",34.9510205,127.4869224,순천
184,전라남도 순천시 해룡면 해광로 199,34.92812,127.55858,순천신대
185,전라남도 여수시 웅천로 19-35 (웅천동),34.7418952,127.6870417,여수웅천
186,"전라북도 익산시 무왕로 1052, 3층~5층(영등동)",35.9465656,126.9279087,익산
187,전라북도 전주시 완산구 전주객사3길 72(고사동),35.8205458,127.1414904,전주고사
188,전북 전주시 덕진구 세병2길,35.8294,127.1342,전주에코시티
189,전라북도 전주시 완산구 효자동 1가 434,35.80455,127.1122589,전주효자
190,전라북도 정읍시 중앙1길 1,35.5682594,126.8537408,정읍
191,"제주특별자치도 제주시 서광로 288, 3층~7층(이도2동)",33.5002523,126.5275053,제주
192,"제주특별자치도 제주시 노형로 407, 노형타워5층",33.4757867,126.4662552,제주노형
